{"type": "FeatureCollection", "features": [ {"type": "Feature", "properties": {"norad_id": 30385, "name": "FENGYUN 1C DEB", "group": "fengyun-1c-debris", "lat": 60.48160304738092, "lon": -18.966840687511567, "alt_km": 777.7087150753678, "timestamp": "2025-12-03T06:58:43.513969+00:00", "meta": {"OBJECT_NAME": "FENGYUN 1C DEB", "OBJECT_ID": "1999-025ACY", "EPOCH": "2025-12-02T00:47:06.338400", "MEAN_MOTION": 14.38749507, "ECCENTRICITY": 0.01250051, "INCLINATION": 99.0827, "RA_OF_ASC_NODE": 356.1134, "ARG_OF_PERICENTER": 321.2401, "MEAN_ANOMALY": 66.7364, "EPHEMERIS_TYPE": 0, "CLASSIFICATION_TYPE": "U", "NORAD_CAT_ID": 30385, "ELEMENT_SET_NO": 999, "REV_AT_EPOCH": 98615, "BSTAR": 0.00036065957, "MEAN_MOTION_DOT": 1.159e-05, "MEAN_MOTION_DDOT": 0}, "tle": {"line1": "1 30385U 99025ACY 25336.03271225  .00001159  00000+0  36066-3 0  9994", "line2": "2 30385  99.0827 356.1134 0125005 321.2401  66.7364 14.38749507986154"}}, "geometry": {"type": "Point", "coordinates": [-18.966840687511567, 60.48160304738092]}}, {"type": "Feature", "properties": {"norad_id": 30386, "name": "FENGYUN 1C DEB", "group": "fengyun-1c-debris", "lat": 81.21644564783203, "lon": 151.87902578252692, "alt_km": 1044.486004907877, "timestamp": "2025-12-03T06:58:43.513979+00:00", "meta": {"OBJECT_NAME": "FENGYUN 1C DEB", "OBJECT_ID": "1999-025ACZ", "EPOCH": "2025-11-30T04:52:53.522400", "MEAN_MOTION": 13.55522281, "ECCENTRICITY": 0.03034699, "INCLINATION": 98.69, "RA_OF_ASC_NODE": 230.954, "ARG_OF_PERICENTER": 188.4777, "MEAN_ANOMALY": 325.644, "EPHEMERIS_TYPE": 0, "CLASSIFICATION_TYPE": "U", "NORAD_CAT_ID": 30386, "ELEMENT_SET_NO": 999, "REV_AT_EPOCH": 92659, "BSTAR": 0.001361829, "MEAN_MOTION_DOT": 1.234e-05, "MEAN_MOTION_DDOT": 0}, "tle": {"line1": "1 30386U 99025ACZ 25334.20339725  .00001234  00000+0  13618-2 0  9993", "line2": "2 30386  98.6900 230.9540 0303469 188.4777 325.6440 13.55522281926593"}}, "geometry": {"type": "Point", "coordinates": [151.87902578252692, 81.21644564783203]}}, {"type": "Feature", "properties": {"norad_id": 30387, "name": "FENGYUN 1C DEB", "group": "fengyun-1c-debris", "lat": -28.216737836162853, "lon": -2.669174277151297, "alt_km": 848.4668584025167, "timestamp": "2025-12-03T06:58:43.513989+00:00", "meta": {"OBJECT_NAME": "FENGYUN 1C DEB", "OBJECT_ID": "1999-025ADA", "EPOCH": "2025-12-02T20:04:24.502080", "MEAN_MOTION": 14.15036518, "ECCENTRICITY": 0.000117, "INCLINATION": 98.6572, "RA_OF_ASC_NODE": 352.2009, "ARG_OF_PERICENTER": 100.326, "MEAN_ANOMALY": 77.8147, "EPHEMERIS_TYPE": 0, "CLASSIFICATION_TYPE": "U", "NORAD_CAT_ID": 30387, "ELEMENT_SET_NO": 999, "REV_AT_EPOCH": 97184, "BSTAR": 0.00034296, "MEAN_MOTION_DOT": 6.22e-06, "MEAN_MOTION_DDOT": 0}, "tle": {"line1": "1 30387U 99025ADA 25336.83639470  .00000622  00000+0  34296-3 0  9991", "line2": "2 30387  98.6572 352.2009 0001170 100.3260  77.8147 14.15036518971849"}}, "geometry": {"type": "Point", "coordinates": [-2.669174277151297, -28.216737836162853]}}, {"type": "Feature", "properties": {"norad_id": 30388, "name": "FENGYUN 1C DEB", "group": "fengyun-1c-debris", "lat": 80.31294966100977, "lon": -64.22363971665574, "alt_km": 659.0406908369459, "timestamp": "2025-12-03T06:58:43.514000+00:00", "meta": {"OBJECT_NAME": "FENGYUN 1C DEB", "OBJECT_ID": "1999-025ADB", "EPOCH": "2025-12-02T21:00:47.054304", "MEAN_MOTION": 14.19731168, "ECCENTRICITY": 0.0222406, "INCLINATION": 98.6002, "RA_OF_ASC_NODE": 357.8164, "ARG_OF_PERICENTER": 91.225, "MEAN_ANOMALY": 33.4256, "EPHEMERIS_TYPE": 0, "CLASSIFICATION_TYPE": "U", "NORAD_CAT_ID": 30388, "ELEMENT_SET_NO": 999, "REV_AT_EPOCH": 97292, "BSTAR": 0.00052591, "MEAN_MOTION_DOT": 1.382e-05, "MEAN_MOTION_DDOT": 0}, "tle": {"line1": "1 30388U 99025ADB 25336.87554461  .00001382  00000+0  52591-3 0  9994", "line2": "2 30388  98.6002 357.8164 0222406  91.2250  33.4256 14.19731168972921"}}, "geometry": {"type": "Point", "coordinates": [-64.22363971665574, 80.31294966100977]}}, {"type": "Feature", "properties": {"norad_id": 30389, "name": "FENGYUN 1C DEB", "group": "fengyun-1c-debris", "lat": 28.72510518774298, "lon": 53.27449864182685, "alt_km": 752.3600816625485, "timestamp": "2025-12-03T06:58:43.514010+00:00", "meta": {"OBJECT_NAME": "FENGYUN 1C DEB", "OBJECT_ID": "1999-025ADC", "EPOCH": "2025-12-02T19:45:47.070144", "MEAN_MOTION": 14.43794775, "ECCENTRICITY": 0.0013661, "INCLINATION": 98.8396, "RA_OF_ASC_NODE": 57.6819, "ARG_OF_PERICENTER": 247.5748, "MEAN_ANOMALY": 233.9481, "EPHEMERIS_TYPE": 0, "CLASSIFICATION_TYPE": "U", "NORAD_CAT_ID": 30389, "ELEMENT_SET_NO": 999, "REV_AT_EPOCH": 97643, "BSTAR": 0.0031336, "MEAN_MOTION_DOT": 0.00010646, "MEAN_MOTION_DDOT": 0}, "tle": {"line1": "1 30389U 99025ADC 25336.82346146  .00010646  00000+0  31336-2 0  9995", "line2": "2 30389  98.8396  57.6819 0013661 247.5748 233.9481 14.43794775976438"}}, "geometry": {"type": "Point", "coordinates": [53.27449864182685, 28.72510518774298]}}, {"type": "Feature", "properties": {"norad_id": 30390, "name": "FENGYUN 1C DEB", "group": "fengyun-1c-debris", "lat": -3.380435525411599, "lon": 60.900277284263964, "alt_km": 843.7631033836533, "timestamp": "2025-12-03T06:58:43.514020+00:00", "meta": {"OBJECT_NAME": "FENGYUN 1C DEB", "OBJECT_ID": "1999-025ADD", "EPOCH": "2025-12-02T04:25:04.041120", "MEAN_MOTION": 14.2956022, "ECCENTRICITY": 0.00681712, "INCLINATION": 98.8236, "RA_OF_ASC_NODE": 59.2539, "ARG_OF_PERICENTER": 194.7014, "MEAN_ANOMALY": 229.4216, "EPHEMERIS_TYPE": 0, "CLASSIFICATION_TYPE": "U", "NORAD_CAT_ID": 30390, "ELEMENT_SET_NO": 999, "REV_AT_EPOCH": 97233, "BSTAR": 0.0023041421, "MEAN_MOTION_DOT": 6.002e-05, "MEAN_MOTION_DDOT": 0}, "tle": {"line1": "1 30390U 99025ADD 25336.18407455  .00006002  00000+0  23041-2 0  9992", "line2": "2 30390  98.8236  59.2539 0068171 194.7014 229.4216 14.29560220972336"}}, "geometry": {"type": "Point", "coordinates": [60.900277284263964, -3.380435525411599]}}, {"type": "Feature", "properties": {"norad_id": 30391, "name": "FENGYUN 1C DEB", "group": "fengyun-1c-debris", "lat": 8.184496126900772, "lon": 22.15173498184747, "alt_km": 830.0380812632247, "timestamp": "2025-12-03T06:58:43.514030+00:00", "meta": {"OBJECT_NAME": "FENGYUN 1C DEB", "OBJECT_ID": "1999-025ADE", "EPOCH": "2025-12-02T02:22:14.349216", "MEAN_MOTION": 14.16159657, "ECCENTRICITY": 0.00710334, "INCLINATION": 98.7822, "RA_OF_ASC_NODE": 22.2504, "ARG_OF_PERICENTER": 292.752, "MEAN_ANOMALY": 121.1924, "EPHEMERIS_TYPE": 0, "CLASSIFICATION_TYPE": "U", "NORAD_CAT_ID": 30391, "ELEMENT_SET_NO": 999, "REV_AT_EPOCH": 96728, "BSTAR": 0.0012888085, "MEAN_MOTION_DOT": 2.569e-05, "MEAN_MOTION_DDOT": 0}, "tle": {"line1": "1 30391U 99025ADE 25336.09877719  .00002569  00000+0  12888-2 0  9998", "line2": "2 30391  98.7822  22.2504 0071033 292.7520 121.1924 14.16159657967287"}}, "geometry": {"type": "Point", "coordinates": [22.15173498184747, 8.184496126900772]}}, {"type": "Feature", "properties": {"norad_id": 30392, "name": "FENGYUN 1C DEB", "group": "fengyun-1c-debris", "lat": -64.88698248228071, "lon": 15.398367894311615, "alt_km": 872.6484652916206, "timestamp": "2025-12-03T06:58:43.514040+00:00", "meta": {"OBJECT_NAME": "FENGYUN 1C DEB", "OBJECT_ID": "1999-025ADF", "EPOCH": "2025-12-02T14:48:06.957216", "MEAN_MOTION": 14.07411262, "ECCENTRICITY": 0.01815659, "INCLINATION": 98.7862, "RA_OF_ASC_NODE": 355.4759, "ARG_OF_PERICENTER": 25.3994, "MEAN_ANOMALY": 97.1303, "EPHEMERIS_TYPE": 0, "CLASSIFICATION_TYPE": "U", "NORAD_CAT_ID": 30392, "ELEMENT_SET_NO": 999, "REV_AT_EPOCH": 96528, "BSTAR": 0.00075954221, "MEAN_MOTION_DOT": 1.442e-05, "MEAN_MOTION_DDOT": 0}, "tle": {"line1": "1 30392U 99025ADF 25336.61674719  .00001442  00000+0  75954-3 0  9995", "line2": "2 30392  98.7862 355.4759 0181565  25.3994  97.1303 14.07411262965286"}}, "geometry": {"type": "Point", "coordinates": [15.398367894311615, -64.88698248228071]}}, {"type": "Feature", "properties": {"norad_id": 30393, "name": "FENGYUN 1C DEB", "group": "fengyun-1c-debris", "lat": -43.37386747541524, "lon": 43.850475265243986, "alt_km": 859.9637565069979, "timestamp": "2025-12-03T06:58:43.514050+00:00", "meta": {"OBJECT_NAME": "FENGYUN 1C DEB", "OBJECT_ID": "1999-025ADG", "EPOCH": "2025-12-02T18:01:25.320000", "MEAN_MOTION": 13.98971782, "ECCENTRICITY": 0.0069591, "INCLINATION": 99.1649, "RA_OF_ASC_NODE": 34.5376, "ARG_OF_PERICENTER": 287.5701, "MEAN_ANOMALY": 190.9623, "EPHEMERIS_TYPE": 0, "CLASSIFICATION_TYPE": "U", "NORAD_CAT_ID": 30393, "ELEMENT_SET_NO": 999, "REV_AT_EPOCH": 96190, "BSTAR": 0.00028869, "MEAN_MOTION_DOT": 3.8e-06, "MEAN_MOTION_DDOT": 0}, "tle": {"line1": "1 30393U 99025ADG 25336.75098750  .00000380  00000+0  28869-3 0  9999", "line2": "2 30393  99.1649  34.5376 0069591 287.5701 190.9623 13.98971782961906"}}, "geometry": {"type": "Point", "coordinates": [43.850475265243986, -43.37386747541524]}}, {"type": "Feature", "properties": {"norad_id": 30394, "name": "FENGYUN 1C DEB", "group": "fengyun-1c-debris", "lat": 32.06671068988011, "lon": -0.6498784083787721, "alt_km": 910.6573497424652, "timestamp": "2025-12-03T06:58:43.514061+00:00", "meta": {"OBJECT_NAME": "FENGYUN 1C DEB", "OBJECT_ID": "1999-025ADH", "EPOCH": "2025-12-02T15:54:46.448640", "MEAN_MOTION": 13.9577258, "ECCENTRICITY": 0.00899321, "INCLINATION": 99.4357, "RA_OF_ASC_NODE": 4.6875, "ARG_OF_PERICENTER": 128.4982, "MEAN_ANOMALY": 352.6062, "EPHEMERIS_TYPE": 0, "CLASSIFICATION_TYPE": "U", "NORAD_CAT_ID": 30394, "ELEMENT_SET_NO": 999, "REV_AT_EPOCH": 95963, "BSTAR": 0.00035213497, "MEAN_MOTION_DOT": 4.51e-06, "MEAN_MOTION_DDOT": 0}, "tle": {"line1": "1 30394U 99025ADH 25336.66303760  .00000451  00000+0  35213-3 0  9990", "line2": "2 30394  99.4357   4.6875 0089932 128.4982 352.6062 13.95772580959636"}}, "geometry": {"type": "Point", "coordinates": [-0.6498784083787721, 32.06671068988011]}}]}